LYNK TOWER 4            
1 55034U 23001AB  26068.67743801  .00009160  00000+0  30014-3 0  9997
2 55034  97.3324 128.5940 0010321 112.3386 247.8950 15.31819885176588
STARLINK-36428          
1 67362U 26003AE  26068.48382604  .00037240  00000+0  13547-2 0  9999
2 67362  43.0027 228.1124 0001227 240.5697 119.5033 15.27610726  8790
